[{"OBJECT_NAME":"STARLINK-1373","OBJECT_ID":"2020-025P","EPOCH":"2026-03-09T10:32:30.631488","MEAN_MOTION":15.50709832,"ECCENTRICITY":0.00045735,"INCLINATION":53.0504,"RA_OF_ASC_NODE":90.168,"ARG_OF_PERICENTER":8.973,"MEAN_ANOMALY":351.1359,"EPHEMERIS_TYPE":0,"CLASSIFICATION_TYPE":"U","NORAD_CAT_ID":45544,"ELEMENT_SET_NO":999,"REV_AT_EPOCH":32530,"BSTAR":0.0015713795,"MEAN_MOTION_DOT":0.00092504,"MEAN_MOTION_DDOT":0},{"OBJECT_NAME":"SITRO-AIS 45","OBJECT_ID":"2024-199BF","EPOCH":"2026-03-09T22:32:19.627584","MEAN_MOTION":15.49904954,"ECCENTRICITY":0.0007189,"INCLINATION":97.3085,"RA_OF_ASC_NODE":302.9301,"ARG_OF_PERICENTER":301.0265,"MEAN_ANOMALY":59.028,"EPHEMERIS_TYPE":0,"CLASSIFICATION_TYPE":"U","NORAD_CAT_ID":61788,"ELEMENT_SET_NO":999,"REV_AT_EPOCH":11899,"BSTAR":0.00074855067,"MEAN_MOTION_DOT":0.00041916,"MEAN_MOTION_DDOT":0}]
